QIANFAN-103             
1 66045U 25233N   26063.45785721  .00000037  00000+0  38867-4 0  9997
2 66045  88.9934  53.7791 0001886  91.5583 268.5785 13.51006135 19040
QIANFAN-104             
1 66046U 25233P   26063.46176021  .00000036  00000+0  37787-4 0  9995
2 66046  88.9939  53.6761 0002081  86.0577 274.0812 13.51010191 19097
QIANFAN-105             
1 66047U 25233Q   26063.46990360  .00000021  00000+0  14308-4 0  9994
2 66047  88.9952  53.5044 0002016  92.6050 267.5332 13.50981405 19204
QIANFAN-106             
1 66048U 25233R   26063.46603828  .00000037  00000+0  38473-4 0  9991
2 66048  88.9921  53.7506 0002383  86.5608 273.5816 13.51005161 19058
QIANFAN-107             
1 66049U 25233S   26063.47429582  .00000042  00000+0  46363-4 0  9999
2 66049  88.9937  53.7655 0001913  90.6253 269.5117 13.51003198 19058
QIANFAN-108             
1 66050U 25233T   26063.40433853  .00000048  00000+0  56094-4 0  9998
2 66050  88.9930  53.7678 0002334  86.1947 273.9471 13.51004718 19046
