[{"OBJECT_NAME":"QIANFAN-103","OBJECT_ID":"2025-233N","EPOCH":"2026-03-04T10:59:18.862944","MEAN_MOTION":13.51006135,"ECCENTRICITY":0.0001886,"INCLINATION":88.9934,"RA_OF_ASC_NODE":53.7791,"ARG_OF_PERICENTER":91.5583,"MEAN_ANOMALY":268.5785,"EPHEMERIS_TYPE":0,"CLASSIFICATION_TYPE":"U","NORAD_CAT_ID":66045,"ELEMENT_SET_NO":999,"REV_AT_EPOCH":1904,"BSTAR":3.8867e-5,"MEAN_MOTION_DOT":3.7e-7,"MEAN_MOTION_DDOT":0},{"OBJECT_NAME":"QIANFAN-104","OBJECT_ID":"2025-233P","EPOCH":"2026-03-04T11:04:56.082144","MEAN_MOTION":13.51010191,"ECCENTRICITY":0.0002081,"INCLINATION":88.9939,"RA_OF_ASC_NODE":53.6761,"ARG_OF_PERICENTER":86.0577,"MEAN_ANOMALY":274.0812,"EPHEMERIS_TYPE":0,"CLASSIFICATION_TYPE":"U","NORAD_CAT_ID":66046,"ELEMENT_SET_NO":999,"REV_AT_EPOCH":1909,"BSTAR":3.7787e-5,"MEAN_MOTION_DOT":3.6e-7,"MEAN_MOTION_DDOT":0},{"OBJECT_NAME":"QIANFAN-105","OBJECT_ID":"2025-233Q","EPOCH":"2026-03-04T11:16:39.671040","MEAN_MOTION":13.50981405,"ECCENTRICITY":0.0002016,"INCLINATION":88.9952,"RA_OF_ASC_NODE":53.5044,"ARG_OF_PERICENTER":92.605,"MEAN_ANOMALY":267.5332,"EPHEMERIS_TYPE":0,"CLASSIFICATION_TYPE":"U","NORAD_CAT_ID":66047,"ELEMENT_SET_NO":999,"REV_AT_EPOCH":1920,"BSTAR":1.4308e-5,"MEAN_MOTION_DOT":2.1e-7,"MEAN_MOTION_DDOT":0},{"OBJECT_NAME":"QIANFAN-106","OBJECT_ID":"2025-233R","EPOCH":"2026-03-04T11:11:05.707392","MEAN_MOTION":13.51005161,"ECCENTRICITY":0.0002383,"INCLINATION":88.9921,"RA_OF_ASC_NODE":53.7506,"ARG_OF_PERICENTER":86.5608,"MEAN_ANOMALY":273.5816,"EPHEMERIS_TYPE":0,"CLASSIFICATION_TYPE":"U","NORAD_CAT_ID":66048,"ELEMENT_SET_NO":999,"REV_AT_EPOCH":1905,"BSTAR":3.8473e-5,"MEAN_MOTION_DOT":3.7e-7,"MEAN_MOTION_DDOT":0},{"OBJECT_NAME":"QIANFAN-107","OBJECT_ID":"2025-233S","EPOCH":"2026-03-04T11:22:59.158848","MEAN_MOTION":13.51003198,"ECCENTRICITY":0.0001913,"INCLINATION":88.9937,"RA_OF_ASC_NODE":53.7655,"ARG_OF_PERICENTER":90.6253,"MEAN_ANOMALY":269.5117,"EPHEMERIS_TYPE":0,"CLASSIFICATION_TYPE":"U","NORAD_CAT_ID":66049,"ELEMENT_SET_NO":999,"REV_AT_EPOCH":1905,"BSTAR":4.6363e-5,"MEAN_MOTION_DOT":4.2e-7,"MEAN_MOTION_DDOT":0},{"OBJECT_NAME":"QIANFAN-108","OBJECT_ID":"2025-233T","EPOCH":"2026-03-04T09:42:14.848992","MEAN_MOTION":13.51004718,"ECCENTRICITY":0.0002334,"INCLINATION":88.993,"RA_OF_ASC_NODE":53.7678,"ARG_OF_PERICENTER":86.1947,"MEAN_ANOMALY":273.9471,"EPHEMERIS_TYPE":0,"CLASSIFICATION_TYPE":"U","NORAD_CAT_ID":66050,"ELEMENT_SET_NO":999,"REV_AT_EPOCH":1904,"BSTAR":5.6094e-5,"MEAN_MOTION_DOT":4.8e-7,"MEAN_MOTION_DDOT":0}]
